NORAD_CAT_ID,OBJECT_NAME,OBJECT_TYPE,EPOCH,MEAN_MOTION,ECCENTRICITY,INCLINATION,RA_OF_ASC_NODE,ARG_OF_PERICENTER,MEAN_ANOMALY,BSTAR,MEAN_MOTION_DOT,MEAN_MOTION_DDOT,TLE_LINE0,TLE_LINE1,TLE_LINE2,SEMIMAJOR_AXIS,PERIOD,APOGEE,PERIGEE,DECAYED
40536,KOMPSAT 3A,PAYLOAD,2022-05-26 20:59:48,15.11768047,0.0006255,97.5299,89.8084,162.608,231.7616,0.0002764,4.653e-05,0.0,0 KOMPSAT 3A,1 40536U 15014A   22146.87486606  .00004653  00000-0  27640-3 0  9999,2 40536  97.5299  89.8084 0006255 162.6080 231.7616 15.11768047395787,6908.945,95.25299999999999,535.132,526.488,0.0
40536,KOMPSAT 3A,PAYLOAD,2022-05-27 00:19:08,15.11768947,0.0006268,97.5297,89.9448,162.2697,264.9763,0.00027315,4.597e-05,0.0,0 KOMPSAT 3A,1 40536U 15014A   22147.01329020  .00004597  00000-0  27315-3 0  9998,2 40536  97.5297  89.9448 0006268 162.2697 264.9763 15.11768947395807,6908.941999999999,95.25299999999999,535.138,526.477,0.0
40536,KOMPSAT 3A,PAYLOAD,2022-05-27 13:15:00,15.11772043,0.0006202000000000001,97.5297,90.476,160.4354,317.3163,0.00025937,4.362e-05,0.0,0 KOMPSAT 3A,1 40536U 15014A   22147.55209374  .00004362  00000-0  25937-3 0  9994,2 40536  97.5297  90.4760 0006202 160.4354 317.3163 15.11772043395886,6908.933000000001,95.25200000000001,535.0830000000002,526.513,0.0
40536,KOMPSAT 3A,PAYLOAD,2022-05-27 20:57:36,15.11772759,0.0006186,97.5298,90.7927,158.6715,266.2886,0.00024315,4.085e-05,0.0,0 KOMPSAT 3A,1 40536U 15014A   22147.87333640  .00004085  00000-0  24315-3 0  9994,2 40536  97.5298  90.7927 0006186 158.6715 266.2886 15.11772759395930,6908.931,95.25200000000001,535.069,526.5219999999998,0.0
40536,KOMPSAT 3A,PAYLOAD,2022-05-28 03:26:56,15.11774441,0.0006175,97.5298,91.0591,157.509,298.0182,0.0002391,4.016e-05,0.0,0 KOMPSAT 3A,1 40536U 15014A   22148.14371436  .00004016  00000-0  23910-3 0  9994,2 40536  97.5298  91.0591 0006175 157.5090 298.0182 15.11774441395979,6908.925,95.25200000000001,535.057,526.524,0.0
40536,KOMPSAT 3A,PAYLOAD,2022-05-28 11:34:09,15.11776219,0.0006236000000000001,97.5299,91.3928,156.7131,339.0092,0.00023202,3.896e-05,0.0,0 KOMPSAT 3A,1 40536U 15014A   22148.48205171  .00003896  00000-0  23202-3 0  9992,2 40536  97.5299  91.3928 0006236 156.7131 339.0092 15.11776219396020,6908.92,95.25200000000001,535.0930000000002,526.477,0.0
40536,KOMPSAT 3A,PAYLOAD,2022-05-28 20:52:39,15.11778177,0.0006319,97.5301,91.7751,155.4702,289.7611,0.000223,3.742e-05,0.0,0 KOMPSAT 3A,1 40536U 15014A   22148.86990424  .00003742  00000-0  22300-3 0  9994,2 40536  97.5301  91.7751 0006319 155.4702 289.7611 15.11778177396083,6908.9140000000025,95.25200000000001,535.145,526.413,0.0
40536,KOMPSAT 3A,PAYLOAD,2022-05-29 05:03:52,15.11780535,0.0006322,97.53,92.111,154.1837,346.3983,0.00022080000000000005,3.705e-05,0.0,0 KOMPSAT 3A,1 40536U 15014A   22149.21102644  .00003705  00000-0  22080-3 0  9997,2 40536  97.5300  92.1110 0006322 154.1837 346.3983 15.11780535396134,6908.906999999997,95.25200000000001,535.14,526.404,0.0
40536,KOMPSAT 3A,PAYLOAD,2022-05-29 09:51:54,15.11781846,0.0006362999999999999,97.53,92.3082,153.6047,354.88800000000015,0.00021914,3.677e-05,0.0,0 KOMPSAT 3A,1 40536U 15014A   22149.41104794  .00003677  00000-0  21914-3 0  9990,2 40536  97.5300  92.3082 0006363 153.6047 354.8880 15.11781846396165,6908.903,95.25200000000001,535.164,526.372,0.0
40536,KOMPSAT 3A,PAYLOAD,2022-05-29 19:00:09,15.11784428,0.0006448,97.5301,92.6835,152.3626,266.9152,0.00021664,3.634e-05,0.0,0 KOMPSAT 3A,1 40536U 15014A   22149.79177851  .00003634  00000-0  21664-3 0  9990,2 40536  97.5301  92.6835 0006448 152.3626 266.9152 15.11784428396229,6908.895,95.25200000000001,535.215,526.305,0.0
40536,KOMPSAT 3A,PAYLOAD,2022-05-29 20:42:13,15.11784972,0.0006427000000000001,97.5302,92.7533,152.2555,292.5501,0.00021656,3.633e-05,0.0,0 KOMPSAT 3A,1 40536U 15014A   22149.86266081  .00003633  00000-0  21656-3 0  9992,2 40536  97.5302  92.7533 0006427 152.2555 292.5501 15.11784972396231,6908.893,95.25200000000001,535.1990000000002,526.318,0.0
40536,KOMPSAT 3A,PAYLOAD,2022-05-30 02:55:50,15.11786814,0.0006449,97.5301,93.0089,151.3589,264.5801,0.00021568,3.618e-05,0.0,0 KOMPSAT 3A,1 40536U 15014A   22150.12210858  .00003618  00000-0  21568-3 0  9999,2 40536  97.5301  93.0089 0006449 151.3589 264.5801 15.11786814396274,6908.888000000001,95.25200000000001,535.2080000000002,526.297,0.0
40536,KOMPSAT 3A,PAYLOAD,2022-05-30 09:41:39,15.1178897,0.000655,97.5302,93.287,150.659,358.0755,0.00021590000000000002,3.622e-05,0.0,0 KOMPSAT 3A,1 40536U 15014A   22150.40392416  .00003622  00000-0  21590-3 0  9991,2 40536  97.5302  93.2870 0006550 150.6590 358.0755 15.11788970396319,6908.8809999999985,95.251,535.2719999999998,526.221,0.0
40536,KOMPSAT 3A,PAYLOAD,2022-05-30 14:18:40,15.11790329,0.0006537000000000001,97.5304,93.4768,149.9332,325.135,0.00021587,3.622e-05,0.0,0 KOMPSAT 3A,1 40536U 15014A   22150.59630041  .00003622  00000-0  21587-3 0  9996,2 40536  97.5304  93.4768 0006537 149.9332 325.1350 15.11790329396349,6908.8769999999995,95.251,535.258,526.226,0.0
40536,KOMPSAT 3A,PAYLOAD,2022-05-30 20:31:48,15.11792488,0.0006594,97.5304,93.7322,149.4652,294.9933,0.0002174,3.648e-05,0.0,0 KOMPSAT 3A,1 40536U 15014A   22150.85542637  .00003648  00000-0  21740-3 0  9997,2 40536  97.5304  93.7322 0006594 149.4652 294.9933 15.11792488396383,6908.871,95.251,535.2909999999998,526.18,0.0
40536,KOMPSAT 3A,PAYLOAD,2022-05-31 02:55:38,15.11794663,0.0006644,97.5304,93.9949,148.7926,305.407,0.00021894,3.675e-05,0.0,0 KOMPSAT 3A,1 40536U 15014A   22151.12197091  .00003675  00000-0  21894-3 0  9998,2 40536  97.5304  93.9949 0006644 148.7926 305.4070 15.11794663396424,6908.864000000001,95.251,535.319,526.139,0.0
40536,KOMPSAT 3A,PAYLOAD,2022-05-31 11:02:49,15.11797017,0.0006694,97.5306,94.3286,147.9396,346.4281,0.00021784,3.656e-05,0.0,0 KOMPSAT 3A,1 40536U 15014A   22151.46029793  .00003656  00000-0  21784-3 0  9995,2 40536  97.5306  94.3286 0006694 147.9396 346.4281 15.11797017396472,6908.857,95.251,535.346,526.097,0.0
40536,KOMPSAT 3A,PAYLOAD,2022-05-31 20:05:11,15.11799445,0.0006758,97.5308,94.7001,147.003,235.9245,0.00021568,3.619e-05,0.0,0 KOMPSAT 3A,1 40536U 15014A   22151.83693881  .00003619  00000-0  21568-3 0  9990,2 40536  97.5308  94.7001 0006758 147.0030 235.9245 15.11799445396536,6908.849,95.251,535.383,526.045,0.0
40536,KOMPSAT 3A,PAYLOAD,2022-06-01 02:45:39,15.11801033,0.000681,97.5309,94.9742,145.5789,309.9693,0.00021337,3.5799999999999996e-05,0.0,0 KOMPSAT 3A,1 40536U 15014A   22152.11504384  .00003580  00000-0  21337-3 0  9992,2 40536  97.5309  94.9742 0006810 145.5789 309.9693 15.11801033396574,6908.844,95.251,535.414,526.005,0.0
40536,KOMPSAT 3A,PAYLOAD,2022-06-01 09:22:35,15.11802813,0.0006867,97.531,95.2459,145.0014,9.8113,0.00021188,3.555e-05,0.0,0 KOMPSAT 3A,1 40536U 15014A   22152.39069247  .00003555  00000-0  21188-3 0  9992,2 40536  97.5310  95.2459 0006867 145.0014   9.8113 15.11802813396618,6908.839,95.251,535.448,525.96,0.0
40536,KOMPSAT 3A,PAYLOAD,2022-06-01 18:26:01,15.11804745,0.0006935999999999999,97.5309,95.618,144.1421,263.2837,0.00020723,3.476e-05,0.0,0 KOMPSAT 3A,1 40536U 15014A   22152.76807771  .00003476  00000-0  20723-3 0  9991,2 40536  97.5309  95.6180 0006936 144.1421 263.2837 15.11804745396671,6908.833000000001,95.25,535.49,525.906,0.0
40536,KOMPSAT 3A,PAYLOAD,2022-06-01 21:46:45,15.11805552,0.0006975,97.531,95.7555,143.6402,301.9483,0.00020596,3.454e-05,0.0,0 KOMPSAT 3A,1 40536U 15014A   22152.90747015  .00003454  00000-0  20596-3 0  9995,2 40536  97.5310  95.7555 0006975 143.6402 301.9483 15.11805552396692,6908.831,95.25,535.515,525.877,0.0
40536,KOMPSAT 3A,PAYLOAD,2022-06-02 02:25:05,15.11806611,0.0007013,97.531,95.9458,143.1348,273.7398,0.00020406,3.422e-05,0.0,0 KOMPSAT 3A,1 40536U 15014A   22153.10075497  .00003422  00000-0  20406-3 0  9991,2 40536  97.5310  95.9458 0007013 143.1348 273.7398 15.11806611396726,6908.8269999999975,95.25,535.538,525.847,0.0
40536,KOMPSAT 3A,PAYLOAD,2022-06-02 14:03:03,15.11808408,0.0006952999999999999,97.5311,96.4237,142.7264,30.4654,0.00019380000000000002,3.247e-05,0.0,0 KOMPSAT 3A,1 40536U 15014A   22153.58545708  .00003247  00000-0  19380-3 0  9994,2 40536  97.5311  96.4237 0006953 142.7264  30.4654 15.11808408396798,6908.821999999999,95.25,535.491,525.883,0.0
40536,KOMPSAT 3A,PAYLOAD,2022-06-02 16:59:07,15.11808369,0.0007044,97.5313,96.5446,142.6619,335.5421,0.00018842,3.155e-05,0.0,0 KOMPSAT 3A,1 40536U 15014A   22153.70772375  .00003155  00000-0  18842-3 0  9990,2 40536  97.5313  96.5446 0007044 142.6619 335.5421 15.11808369396818,6908.821999999999,95.25,535.554,525.821,0.0
40536,KOMPSAT 3A,PAYLOAD,2022-06-03 02:14:38,15.1180922,0.0007058,97.531,96.9249,140.0012,276.4498,0.00017692,2.958e-05,0.0,0 KOMPSAT 3A,1 40536U 15014A   22154.09349860  .00002958  00000-0  17692-3 0  9994,2 40536  97.5310  96.9249 0007058 140.0012 276.4498 15.11809220396874,6908.82,95.25,535.561,525.808,0.0
40536,KOMPSAT 3A,PAYLOAD,2022-06-03 08:51:03,15.11810006,0.0007063,97.5312,97.1963,139.4525,334.3172,0.00017088,2.855e-05,0.0,0 KOMPSAT 3A,1 40536U 15014A   22154.36878881  .00002855  00000-0  17088-3 0  9999,2 40536  97.5312  97.1963 0007063 139.4525 334.3172 15.11810006396911,6908.816999999999,95.25,535.562,525.802,0.0
40536,KOMPSAT 3A,PAYLOAD,2022-06-03 13:37:12,15.118095199999999,0.0007101,97.531,97.3922,139.516,335.0803,0.00015900000000000002,2.652e-05,0.0,0 KOMPSAT 3A,1 40536U 15014A   22154.56750556  .00002652  00000-0  15900-3 0  9995,2 40536  97.5310  97.3922 0007101 139.5160 335.0803 15.11809520396946,6908.819,95.25,535.59,525.778,0.0
40536,KOMPSAT 3A,PAYLOAD,2022-06-03 18:03:17,15.1180967,0.0007124,97.5309,97.5746,138.9611,260.6354,0.00015223,2.536e-05,0.0,0 KOMPSAT 3A,1 40536U 15014A   22154.75228044  .00002536  00000-0  15223-3 0  9997,2 40536  97.5309  97.5746 0007124 138.9611 260.6354 15.11809670396972,6908.818,95.25,535.605,525.761,0.0
